{
  "type": "FeatureCollection",
  "features": [
    {
      "type": "Feature",
      "properties": {
        "norad_id": 31300,
        "name": "FENGYUN 1C DEB",
        "group": "fengyun-1c-debris",
        "lat": 19.659278581922088,
        "lon": -97.01642626492358,
        "alt_km": 872.2360793587486,
        "timestamp": "2025-12-25T07:41:10.004760+00:00",
        "meta_object_name": "FENGYUN 1C DEB",
        "meta_object_id": "1999-025BPJ",
        "meta_epoch": "2025-12-24T03:55:34.777344",
        "meta_mean_motion": 14.15175512,
        "meta_eccentricity": 0.00596051,
        "meta_inclination": 99.5418,
        "meta_ra_of_asc_node": 78.3024,
        "meta_arg_of_pericenter": 27.7619,
        "meta_mean_anomaly": 2.1678,
        "meta_ephemeris_type": 0,
        "meta_classification_type": "U",
        "meta_norad_cat_id": 31300,
        "meta_element_set_no": 999,
        "meta_rev_at_epoch": 96336,
        "meta_bstar": 0.0012461369,
        "meta_mean_motion_dot": 2.412e-05,
        "meta_mean_motion_ddot": 0,
        "tle_line1": "1 31300U 99025BPJ 25358.16359696  .00002412  00000+0  12461-2 0  9994",
        "tle_line2": "2 31300  99.5418  78.3024 0059605  27.7619   2.1678 14.15175512963369"
      },
      "geometry": {
        "type": "Point",
        "coordinates": [
          -97.01642626492358,
          19.659278581922088
        ]
      }
    },
    {
      "type": "Feature",
      "properties": {
        "norad_id": 31302,
        "name": "FENGYUN 1C DEB",
        "group": "fengyun-1c-debris",
        "lat": -19.846532316284843,
        "lon": -141.1135883581981,
        "alt_km": 823.932100493591,
        "timestamp": "2025-12-25T07:41:10.004770+00:00",
        "meta_object_name": "FENGYUN 1C DEB",
        "meta_object_id": "1999-025BPL",
        "meta_epoch": "2025-12-19T15:12:58.171104",
        "meta_mean_motion": 14.27574345,
        "meta_eccentricity": 0.002659,
        "meta_inclination": 99.4129,
        "meta_ra_of_asc_node": 36.2,
        "meta_arg_of_pericenter": 35.1141,
        "meta_mean_anomaly": 117.7071,
        "meta_ephemeris_type": 0,
        "meta_classification_type": "U",
        "meta_norad_cat_id": 31302,
        "meta_element_set_no": 999,
        "meta_rev_at_epoch": 96456,
        "meta_bstar": 0.00096178,
        "meta_mean_motion_dot": 2.325e-05,
        "meta_mean_motion_ddot": 0,
        "tle_line1": "1 31302U 99025BPL 25353.63400661  .00002325  00000+0  96178-3 0  9993",
        "tle_line2": "2 31302  99.4129  36.2000 0026590  35.1141 117.7071 14.27574345964569"
      },
      "geometry": {
        "type": "Point",
        "coordinates": [
          -141.1135883581981,
          -19.846532316284843
        ]
      }
    },
    {
      "type": "Feature",
      "properties": {
        "norad_id": 31303,
        "name": "FENGYUN 1C DEB",
        "group": "fengyun-1c-debris",
        "lat": -77.01632323532857,
        "lon": 153.49773963859644,
        "alt_km": 870.0003646124933,
        "timestamp": "2025-12-25T07:41:10.004781+00:00",
        "meta_object_name": "FENGYUN 1C DEB",
        "meta_object_id": "1999-025BPM",
        "meta_epoch": "2025-12-24T11:44:12.668064",
        "meta_mean_motion": 14.11029713,
        "meta_eccentricity": 0.00120246,
        "meta_inclination": 98.7039,
        "meta_ra_of_asc_node": 14.3281,
        "meta_arg_of_pericenter": 120.7767,
        "meta_mean_anomaly": 239.459,
        "meta_ephemeris_type": 0,
        "meta_classification_type": "U",
        "meta_norad_cat_id": 31303,
        "meta_element_set_no": 999,
        "meta_rev_at_epoch": 96484,
        "meta_bstar": 0.00012179217,
        "meta_mean_motion_dot": 1.77e-06,
        "meta_mean_motion_ddot": 0,
        "tle_line1": "1 31303U 99025BPM 25358.48903551  .00000177  00000+0  12179-3 0  9990",
        "tle_line2": "2 31303  98.7039  14.3281 0012024 120.7767 239.4590 14.11029713964848"
      },
      "geometry": {
        "type": "Point",
        "coordinates": [
          153.49773963859644,
          -77.01632323532857
        ]
      }
    },
    {
      "type": "Feature",
      "properties": {
        "norad_id": 31311,
        "name": "FENGYUN 1C DEB",
        "group": "fengyun-1c-debris",
        "lat": 81.02169271029194,
        "lon": 0.3750414881526374,
        "alt_km": 775.0119904513294,
        "timestamp": "2025-12-25T07:41:10.004791+00:00",
        "meta_object_name": "FENGYUN 1C DEB",
        "meta_object_id": "1999-025BPP",
        "meta_epoch": "2025-12-24T20:04:58.580832",
        "meta_mean_motion": 14.29844244,
        "meta_eccentricity": 0.00175779,
        "meta_inclination": 98.8515,
        "meta_ra_of_asc_node": 80.3822,
        "meta_arg_of_pericenter": 50.6608,
        "meta_mean_anomaly": 70.5344,
        "meta_ephemeris_type": 0,
        "meta_classification_type": "U",
        "meta_norad_cat_id": 31311,
        "meta_element_set_no": 999,
        "meta_rev_at_epoch": 96394,
        "meta_bstar": 0.0016961477,
        "meta_mean_motion_dot": 4.326e-05,
        "meta_mean_motion_ddot": 0,
        "tle_line1": "1 31311U 99025BPP 25358.83678913  .00004326  00000+0  16961-2 0  9991",
        "tle_line2": "2 31311  98.8515  80.3822 0017577  50.6608  70.5344 14.29844244963948"
      },
      "geometry": {
        "type": "Point",
        "coordinates": [
          0.3750414881526374,
          81.02169271029194
        ]
      }
    },
    {
      "type": "Feature",
      "properties": {
        "norad_id": 31312,
        "name": "FENGYUN 1C DEB",
        "group": "fengyun-1c-debris",
        "lat": 26.09042546078387,
        "lon": -19.76897397481036,
        "alt_km": 931.5135944808662,
        "timestamp": "2025-12-25T07:41:10.004800+00:00",
        "meta_object_name": "FENGYUN 1C DEB",
        "meta_object_id": "1999-025BPQ",
        "meta_epoch": "2025-12-15T05:56:52.525824",
        "meta_mean_motion": 14.00925702,
        "meta_eccentricity": 0.00580012,
        "meta_inclination": 98.8604,
        "meta_ra_of_asc_node": 334.8421,
        "meta_arg_of_pericenter": 229.1743,
        "meta_mean_anomaly": 146.4845,
        "meta_ephemeris_type": 0,
        "meta_classification_type": "U",
        "meta_norad_cat_id": 31312,
        "meta_element_set_no": 999,
        "meta_rev_at_epoch": 95181,
        "meta_bstar": 0.00060391584,
        "meta_mean_motion_dot": 8.73e-06,
        "meta_mean_motion_ddot": 0,
        "tle_line1": "1 31312U 99025BPQ 25349.24783016  .00000873  00000+0  60392-3 0  9999",
        "tle_line2": "2 31312  98.8604 334.8421 0058001 229.1743 146.4845 14.00925702951810"
      },
      "geometry": {
        "type": "Point",
        "coordinates": [
          -19.76897397481036,
          26.09042546078387
        ]
      }
    },
    {
      "type": "Feature",
      "properties": {
        "norad_id": 31313,
        "name": "FENGYUN 1C DEB",
        "group": "fengyun-1c-debris",
        "lat": -41.83136842948115,
        "lon": -88.34413088868821,
        "alt_km": 856.3828083567287,
        "timestamp": "2025-12-25T07:41:10.004810+00:00",
        "meta_object_name": "FENGYUN 1C DEB",
        "meta_object_id": "1999-025BPR",
        "meta_epoch": "2025-12-23T11:59:22.013376",
        "meta_mean_motion": 14.22287318,
        "meta_eccentricity": 0.00451533,
        "meta_inclination": 99.0155,
        "meta_ra_of_asc_node": 261.625,
        "meta_arg_of_pericenter": 150.246,
        "meta_mean_anomaly": 210.1299,
        "meta_ephemeris_type": 0,
        "meta_classification_type": "U",
        "meta_norad_cat_id": 31313,
        "meta_element_set_no": 999,
        "meta_rev_at_epoch": 97215,
        "meta_bstar": 0.00026650765,
        "meta_mean_motion_dot": 5.52e-06,
        "meta_mean_motion_ddot": 0,
        "tle_line1": "1 31313U 99025BPR 25357.49956034  .00000552  00000+0  26651-3 0  9992",
        "tle_line2": "2 31313  99.0155 261.6250 0045153 150.2460 210.1299 14.22287318972156"
      },
      "geometry": {
        "type": "Point",
        "coordinates": [
          -88.34413088868821,
          -41.83136842948115
        ]
      }
    },
    {
      "type": "Feature",
      "properties": {
        "norad_id": 31314,
        "name": "FENGYUN 1C DEB",
        "group": "fengyun-1c-debris",
        "lat": -57.51855585871364,
        "lon": 7.102806238682359,
        "alt_km": 830.6113687751058,
        "timestamp": "2025-12-25T07:41:10.004820+00:00",
        "meta_object_name": "FENGYUN 1C DEB",
        "meta_object_id": "1999-025BPS",
        "meta_epoch": "2025-12-23T18:21:29.542464",
        "meta_mean_motion": 14.04935458,
        "meta_eccentricity": 0.00782515,
        "meta_inclination": 98.8224,
        "meta_ra_of_asc_node": 351.4704,
        "meta_arg_of_pericenter": 326.4651,
        "meta_mean_anomaly": 33.1576,
        "meta_ephemeris_type": 0,
        "meta_classification_type": "U",
        "meta_norad_cat_id": 31314,
        "meta_element_set_no": 999,
        "meta_rev_at_epoch": 60969,
        "meta_bstar": 0.00036988335,
        "meta_mean_motion_dot": 5.68e-06,
        "meta_mean_motion_ddot": 0,
        "tle_line1": "1 31314U 99025BPS 25357.76492526  .00000568  00000+0  36988-3 0  9995",
        "tle_line2": "2 31314  98.8224 351.4704 0078251 326.4651  33.1576 14.04935458609699"
      },
      "geometry": {
        "type": "Point",
        "coordinates": [
          7.102806238682359,
          -57.51855585871364
        ]
      }
    }
  ]
}